INTELSAT 902 (IS-902)   
1 26900U 01039A   26119.26477023 -.00000282  00000+0  00000+0 0  9991
2 26900   5.9954  72.3660 0004329 320.4297 229.6565  1.00272807 90203
INTELSAT 904 (IS-904)   
1 27380U 02007A   26119.21294676 -.00000225  00000+0  00000+0 0  9993
2 27380   6.8004  69.7612 0007802 339.5206 213.0664  1.00273223 51273
DIRECTV 5 (TEMPO 1)     
1 27426U 02023A   26119.13951480 -.00000057  00000+0  00000+0 0  9999
2 27426   4.7548  75.9061 0003610 327.8423 113.4755  1.00272427 87633
INTELSAT 905 (IS-905)   
1 27438U 02027A   26119.03367748  .00000094  00000+0  00000+0 0  9993
2 27438   6.6328  70.3808 0003691 340.2324  41.3092  1.00271735 50879
GALAXY 3C (G-3C)        
1 27445U 02030A   26118.82821637 -.00000154  00000+0  00000+0 0  9991
2 27445   3.6043  78.6366 0001726  23.4354 318.0164  1.00271851 45998
INTELSAT 906 (IS-906)   
1 27513U 02041A   26118.93091677  .00000013  00000+0  00000+0 0  9997
2 27513   5.6791  73.5117 0004055 338.0599 204.6062  1.00271051 86532
GALAXY 13 (HORIZONS-1)  
1 27954U 03044A   26119.24509682  .00000131  00000+0  00000+0 0  9996
2 27954   1.2930  84.4304 0002194 318.0589 112.9745  1.00274574 46084
INTELSAT 10-02          
1 28358U 04022A   26119.19627837  .00000000  00000+0  00000+0 0  9994
2 28358   0.0157  63.4294 0001197  21.4630 201.8877  1.00270891 80068
DIRECTV 8               
1 28659U 05019A   26119.25116351  .00000000  00000+0  00000+0 0  9996
2 28659   0.0079 237.0680 0003374 172.5395 138.9777  1.00271872 76589
GALAXY 28 (G-28)        
1 28702U 05022A   26119.05329002 -.00000201  00000+0  00000+0 0  9990
2 28702   3.1746  79.5198 0003233 323.2728 166.2972  1.00269836 51485
GALAXY 16 (G-16)        
1 29236U 06023A   26119.32311927 -.00000129  00000+0  00000+0 0  9991
2 29236   0.0172 220.7318 0002842 180.3896 193.4871  1.00272356 72488
DIRECTV 9S              
1 29494U 06043A   26119.25471685 -.00000114  00000+0  00000+0 0  9993
2 29494   2.2963  81.4629 0004385 333.0115 153.2365  1.00271916 50892
GALAXY 17 (G-17)        
1 31307U 07016B   26119.25792353 -.00000207  00000+0  00000+0 0  9991
2 31307   2.8502  80.4915 0004448 332.4363 172.1466  1.00272322 69319
INTELSAT 11 (IS-11)     
1 32253U 07044B   26119.27092359 -.00000231  00000+0  00000+0 0  9991
2 32253   3.4400  79.2411 0001102 229.7829 346.6250  0.99053218 67966
HORIZONS-2              
1 32388U 07063B   26119.26017687 -.00000254  00000+0  00000+0 0  9996
2 32388   2.4778  81.2021 0003578 325.9917 189.9038  1.00271985 67326
DIRECTV 11              
1 32729U 08013A   26118.89858999 -.00000129  00000+0  00000+0 0  9999
2 32729   0.0022  17.4908 0000539 347.1647  76.5060  1.00269437 45091
GALAXY 18 (G-18)        
1 32951U 08024A   26119.17953597  .00000022  00000+0  00000+0 0  9991
2 32951   0.0141 259.5627 0003376 148.5564 110.6567  1.00272695 45362
INTELSAT 25 (IS-25)     
1 33153U 08034A   26113.08239256 -.00000278  00000+0  00000+0 0  9994
2 33153   2.5670  80.9425 0002165 274.6153 207.9060  0.99965107 65143
GALAXY 19 (G-19)        
1 33376U 08045A   26119.13740322 -.00000142  00000+0  00000+0 0  9996
2 33376   0.0173 240.6092 0003541 176.4443 112.5062  1.00272057 64416
FM-5                    
1 35493U 09034A   26119.25766353 -.00000202  00000+0  00000+0 0  9999
2 35493   0.0138 271.2130 0000379 349.7777 322.8361  1.00270817 46154
INTELSAT 14 (IS-14)     
1 36097U 09064A   26119.26581023 -.00000276  00000+0  00000+0 0  9994
2 36097   0.0030  22.9013 0002573  19.0530 225.9654  1.00271475 60110
INTELSAT 15 (IS-15)     
1 36106U 09067A   26119.07770432 -.00000188  00000+0  00000+0 0  9993
2 36106   0.0127 274.0233 0002361 127.8549 288.2926  1.00271611 40737
DIRECTV 12              
1 36131U 09075A   26118.89789666 -.00000107  00000+0  00000+0 0  9999
2 36131   0.0304  67.5241 0000321   3.8179   6.0399  1.00272346 46059
INTELSAT 16 (IS-16)     
1 36397U 10006A   26119.25965688 -.00000247  00000+0  00000+0 0  9995
2 36397   0.0138 281.1674 0002317 148.5677 164.7576  1.00270240 59165
XM-5                    
1 37185U 10053A   26119.13816659 -.00000026  00000+0  00000+0 0  9998
2 37185   0.0624 271.0974 0003482 274.5057 326.0415  1.00270692 56992
INTELSAT 17 (IS-17)     
1 37238U 10065B   26119.14525642 -.00000005  00000+0  00000+0 0  9997
2 37238   0.0161 228.5226 0002704 186.8551 280.0351  1.00273723 52750
INTELSAT 28 (IS-28)     
1 37392U 11016A   26119.26849691 -.00000226  00000+0  00000+0 0  9996
2 37392   1.6814  83.1871 0004136 319.6309 239.3630  1.00272673 52796
INTELSAT 18 (IS-18)     
1 37834U 11056A   26119.23911679  .00000050  00000+0  00000+0 0  9998
2 37834   0.0216 260.9486 0001951 136.5044  85.8300  1.00271937 53327
INTELSAT 22 (IS-22)     
1 38098U 12011A   26119.00386403 -.00000062  00000+0  00000+0 0  9993
2 38098   0.0284 100.2195 0001754 303.6185 246.6125  1.00270799  6697
INTELSAT 19 (IS-19)     
1 38356U 12030A   26119.09365105  .00000000  00000+0  00000+0 0  9997
2 38356   0.0186 261.7629 0003325 141.8977  13.1143  1.00270988 49950
INTELSAT 20 (IS-20)     
1 38740U 12043A   26118.93178345 -.00000031  00000+0  00000+0 0  9993
2 38740   0.0199 294.5894 0001658  67.2679 258.9736  1.00285930 50251
INTELSAT 21 (IS-21)     
1 38749U 12045A   26119.28887831  .00000000  00000+0  00000+0 0  9995
2 38749   0.0184 257.8606 0001869 154.7881 210.5784  1.00266595 50037
INTELSAT 23 (IS-23)     
1 38867U 12057A   26119.26425023 -.00000287  00000+0  00000+0 0  9996
2 38867   0.0183 276.7108 0000374   4.6672 337.9813  1.00270915 49468
FM-6                    
1 39360U 13058A   26118.89520998 -.00000020  00000+0  00000+0 0  9997
2 39360   0.0165 266.5620 0000156 313.4643 202.7938  1.00270509 45574
INTELSAT 30 (IS-30)     
1 40271U 14062A   26119.25593019 -.00000153  00000+0  00000+0 0  9998
2 40271   0.0151 293.5186 0000949 108.4047 172.3840  1.00269823  6308
DIRECTV 14              
1 40333U 14078B   26118.94558726  .00000000  00000+0  00000+0 0  9995
2 40333   0.0142 274.6876 0000262 178.8032   4.5994  1.00269242 41553
DIRECTV 15              
1 40663U 15026A   26118.95114221  .00000000  00000+0  00000+0 0  9994
2 40663   0.0091 110.8867 0000303  29.3380 316.2315  1.00269813 39972
SKY MEXICO-1            
1 40664U 15026B   26119.20440396 -.00000237  00000+0  00000+0 0  9992
2 40664   0.0128 265.3408 0001985 132.7342 173.8748  1.00273172 39964
INTELSAT 34 (IS-34)     
1 40874U 15039A   26119.26373022 -.00000288  00000+0  00000+0 0  9992
2 40874   0.0148 285.0223 0000253  66.7276 264.9289  1.00271182 39143
INTELSAT 31 (IS-31)     
1 41581U 16035A   26119.25593019 -.00000153  00000+0  00000+0 0  9995
2 41581   0.0114 238.3682 0002019  38.9999 296.9346  1.00270514 36196
INTELSAT 36 (IS-36)     
1 41747U 16053A   26118.93178345 -.00000028  00000+0  00000+0 0  9995
2 41747   0.0164 316.7851 0001394  11.8516 292.1936  1.00271199 35466
INTELSAT 32E (IS-32E)   
1 41945U 17007B   26119.26624356  .00000000  00000+0  00000+0 0  9999
2 41945   0.0177 259.4155 0000043 125.0177 245.4643  1.00267585 33739
INTELSAT 35E (IS-35E)   
1 42818U 17041A   26119.24064605 -.00000240  00000+0  00000+0 0  9997
2 42818   0.0102 213.1759 0002124 185.7002 230.4693  1.00271536 32320
INTELSAT 37E (IS-37E)   
1 42950U 17059A   26119.29162517  .00000000  00000+0  00000+0 0  9992
2 42950   0.0132 252.6622 0002521 175.1650 236.4082  1.00269712 31577
AZERSPACE 2 (IS-38)     
1 43632U 18074A   26119.21242336  .00000000  00000+0  00000+0 0  9998
2 43632   0.0183 256.5109 0001618 149.7043 292.5367  1.00271159 27957
HORIZONS-3E             
1 43633U 18074B   26119.23695012 -.00000033  00000+0  00000+0 0  9991
2 43633   0.0391  93.3948 0000825 247.6513 130.4415  1.00270435 27855
AT&T T-16               
1 44333U 19034A   26119.04087083 -.00000118  00000+0  00000+0 0  9992
2 44333   0.0447  75.5390 0000714 129.6858 285.6292  1.00269802 25148
INTELSAT 39 (IS-39)     
1 44476U 19049B   26119.21571671  .00000031  00000+0  00000+0 0  9999
2 44476   0.0213 261.6498 0000499 344.7435 110.3868  1.00271013 24638
GALAXY 30 (G-30)        
1 46114U 20056C   26119.14669955  .00000034  00000+0  00000+0 0  9998
2 46114   0.0194 262.9511 0002509 147.9810  93.9878  1.00272765 20808
GALAXY 33 (G-33)        
1 54026U 22128A   26119.24830350  .00000076  00000+0  00000+0 0  9997
2 54026   0.0153 278.0286 0001857 110.3067 145.2765  1.00274409 13258
GALAXY 34 (G-34)        
1 54027U 22128B   26119.20336457  .00000000  00000+0  00000+0 0  9990
2 54027   0.0222 248.1092 0001679 159.5817 113.7005  1.00271512 13427
GALAXY 31 (G-31)        
1 54243U 22153A   26119.20671764  .00000010  00000+0  00000+0 0  9992
2 54243   0.0076 221.6591 0001462 180.0520 128.8826  1.00273888  6646
GALAXY 32 (G-32)        
1 54244U 22153B   26119.25671020 -.00000177  00000+0  00000+0 0  9998
2 54244   0.0164 298.0355 0002978  98.5770 182.0172  1.00271777 12653
GALAXY 35 (G-35)        
1 54741U 22170A   26119.19141948 -.00000165  00000+0  00000+0 0  9990
2 54741   0.0137 248.4895 0002206 155.1381 149.3251  1.00272660 12404
GALAXY 36 (G-36)        
1 54742U 22170B   26119.25714353 -.00000187  00000+0  00000+0 0  9998
2 54742   0.0183 170.7073 0002928 256.5017 153.5780  1.00271321 12287
GALAXY 37 (G-37)        
1 57493U 23112A   26119.17961492  .00000000  00000+0  00000+0 0  9993
2 57493   0.0087 261.2466 0002278 139.8201 113.7381  1.00271344 10057
